start=new Date('2023-02-01T00:00:00.000Z').valueOf();
sats=[{"SITE":"AFETR","DECAY_DATE":null,"APOAPSIS":"547.939","SEMIMAJOR_AXIS":"6925.338","NORAD_CAT_ID":"44746","REF_FRAME":"TEME","MEAN_ANOMALY":"266.5130","TIME_SYSTEM":"UTC","OBJECT_TYPE":"PAYLOAD","LAUNCH_DATE":"2019-11-11","OBJECT_ID":"2019-074AK","CENTER_NAME":"EARTH","RA_OF_ASC_NODE":"271.6758","COUNTRY_CODE":"US","ARG_OF_PERICENTER":"93.5980","ECCENTRICITY":"0.00010630","INCLINATION":"53.0523","MEAN_MOTION_DDOT":"0.0000000000000","MEAN_MOTION":"15.06403534","OBJECT_NAME":"STARLINK-1041","BSTAR":"0.00012830000000","EPHEMERIS_TYPE":"0","PERIOD":"95.592","MEAN_MOTION_DOT":"0.00001630","RCS_SIZE":"LARGE","ELEMENT_SET_NO":"999","CLASSIFICATION_TYPE":"U","REV_AT_EPOCH":"17746","TLE_LINE2":"2 44746  53.0523 271.6758 0001063  93.5980 266.5130 15.06403534177464","TLE_LINE1":"1 44746U 19074AK  23031.95314909  .00001630  00000-0  12830-3 0  9992","PERIAPSIS":"546.467","GP_ID":"224123057","MEAN_ELEMENT_THEORY":"SGP4","EPOCH":"2023-01-31T22:52:32.081376","FILE":"3766747"},{"INCLINATION":"53.0526","ECCENTRICITY":"0.00018710","ARG_OF_PERICENTER":"118.3211","COUNTRY_CODE":"US","RA_OF_ASC_NODE":"275.3895","CENTER_NAME":"EARTH","OBJECT_ID":"2019-074AL","LAUNCH_DATE":"2019-11-11","OBJECT_TYPE":"PAYLOAD","TIME_SYSTEM":"UTC","MEAN_ANOMALY":"241.7967","NORAD_CAT_ID":"44747","REF_FRAME":"TEME","SEMIMAJOR_AXIS":"6923.304","APOAPSIS":"546.464","DECAY_DATE":null,"SITE":"AFETR","FILE":"3766475","EPOCH":"2023-01-31T02:48:46.362528","MEAN_ELEMENT_THEORY":"SGP4","GP_ID":"224092452","PERIAPSIS":"543.873","TLE_LINE1":"1 44747U 19074AL  23031.11720327  .00012684  00000-0  85347-3 0  9990","TLE_LINE2":"2 44747  53.0526 275.3895 0001871 118.3211 241.7967 15.07067445177349","REV_AT_EPOCH":"17734","CLASSIFICATION_TYPE":"U","ELEMENT_SET_NO":"999","RCS_SIZE":"LARGE","MEAN_MOTION_DOT":"0.00012684","PERIOD":"95.550","EPHEMERIS_TYPE":"0","BSTAR":"0.00085347000000","OBJECT_NAME":"STARLINK-1042","MEAN_MOTION":"15.07067445","MEAN_MOTION_DDOT":"0.0000000000000"},{"MEAN_ANOMALY":"266.7922","TIME_SYSTEM":"UTC","SEMIMAJOR_AXIS":"6925.341","REF_FRAME":"TEME","NORAD_CAT_ID":"44748","APOAPSIS":"548.017","SITE":"AFETR","DECAY_DATE":null,"INCLINATION":"53.0522","ECCENTRICITY":"0.00011710","RA_OF_ASC_NODE":"271.7094","ARG_OF_PERICENTER":"93.3201","COUNTRY_CODE":"US","OBJECT_ID":"2019-074AM","LAUNCH_DATE":"2019-11-11","CENTER_NAME":"EARTH","OBJECT_TYPE":"PAYLOAD","PERIOD":"95.592","EPHEMERIS_TYPE":"0","MEAN_MOTION_DOT":"0.00001166","BSTAR":"0.00009717600000","OBJECT_NAME":"STARLINK-1043","MEAN_MOTION":"15.06402572","MEAN_MOTION_DDOT":"0.0000000000000","EPOCH":"2023-01-31T22:41:55.284864","FILE":"3766747","GP_ID":"224124058","MEAN_ELEMENT_THEORY":"SGP4","TLE_LINE2":"2 44748  53.0522 271.7094 0001171  93.3201 266.7922 15.06402572177465","REV_AT_EPOCH":"17746","PERIAPSIS":"546.395","TLE_LINE1":"1 44748U 19074AM  23031.94577876  .00001166  00000-0  97176-4 0  9998","ELEMENT_SET_NO":"999","RCS_SIZE":"LARGE","CLASSIFICATION_TYPE":"U"},{"APOAPSIS":"548.083","DECAY_DATE":null,"SITE":"AFETR","TIME_SYSTEM":"UTC","MEAN_ANOMALY":"268.3695","REF_FRAME":"TEME","NORAD_CAT_ID":"44751","SEMIMAJOR_AXIS":"6925.346","CENTER_NAME":"EARTH","OBJECT_ID":"2019-074AQ","LAUNCH_DATE":"2019-11-11","OBJECT_TYPE":"PAYLOAD","INCLINATION":"53.0511","ECCENTRICITY":"0.00012600","ARG_OF_PERICENTER":"91.7438","COUNTRY_CODE":"US","RA_OF_ASC_NODE":"271.6453","MEAN_MOTION":"15.06400955","MEAN_MOTION_DDOT":"0.0000000000000","MEAN_MOTION_DOT":"0.00000908","PERIOD":"95.592","EPHEMERIS_TYPE":"0","BSTAR":"0.00007981400000","OBJECT_NAME":"STARLINK-1046","PERIAPSIS":"546.338","TLE_LINE1":"1 44751U 19074AQ  23031.96052334  .00000908  00000-0  79814-4 0  9993","TLE_LINE2":"2 44751  53.0511 271.6453 0001260  91.7438 268.3695 15.06400955177466","REV_AT_EPOCH":"17746","CLASSIFICATION_TYPE":"U","ELEMENT_SET_NO":"999","RCS_SIZE":"LARGE","FILE":"3766747","EPOCH":"2023-01-31T23:03:09.216576","MEAN_ELEMENT_THEORY":"SGP4","GP_ID":"224122807"},{"MEAN_ANOMALY":"271.0679","TIME_SYSTEM":"UTC","SEMIMAJOR_AXIS":"6925.307","NORAD_CAT_ID":"44752","REF_FRAME":"TEME","APOAPSIS":"548.230","SITE":"AFETR","DECAY_DATE":null,"INCLINATION":"53.0520","ECCENTRICITY":"0.00015280","RA_OF_ASC_NODE":"252.1420","ARG_OF_PERICENTER":"89.0485","COUNTRY_CODE":"US","OBJECT_ID":"2019-074AR","LAUNCH_DATE":"2019-11-11","CENTER_NAME":"EARTH","OBJECT_TYPE":"PAYLOAD","PERIOD":"95.591","EPHEMERIS_TYPE":"0","MEAN_MOTION_DOT":"0.00008612","BSTAR":"0.00059614000000","OBJECT_NAME":"STARLINK-1047","MEAN_MOTION":"15.06413670","MEAN_MOTION_DDOT":"0.0000000000000","EPOCH":"2023-01-31T20:21:17.189568","FILE":"3766747","GP_ID":"224122558","MEAN_ELEMENT_THEORY":"SGP4","TLE_LINE2":"2 44752  53.0520 252.1420 0001528  89.0485 271.0679 15.06413670177724","REV_AT_EPOCH":"17772","PERIAPSIS":"546.113","TLE_LINE1":"1 44752U 19074AR  23031.84811562  .00008612  00000-0  59614-3 0  9992","ELEMENT_SET_NO":"999","RCS_SIZE":"LARGE","CLASSIFICATION_TYPE":"U"},{"PERIOD":"95.592","EPHEMERIS_TYPE":"0","MEAN_MOTION_DOT":"0.00000299","BSTAR":"0.00003897700000","OBJECT_NAME":"STARLINK-1048","MEAN_MOTION":"15.06397891","MEAN_MOTION_DDOT":"0.0000000000000","EPOCH":"2023-01-31T22:04:46.148448","FILE":"3766747","GP_ID":"224123808","MEAN_ELEMENT_THEORY":"SGP4","TLE_LINE2":"2 44753  53.0506 231.8255 0001213  85.1881 274.9246 15.06397891178018","REV_AT_EPOCH":"17801","PERIAPSIS":"546.380","TLE_LINE1":"1 44753U 19074AS  23031.91997857  .00000299  00000-0  38977-4 0  9996","ELEMENT_SET_NO":"999","RCS_SIZE":"LARGE","CLASSIFICATION_TYPE":"U","MEAN_ANOMALY":"274.9246","TIME_SYSTEM":"UTC","SEMIMAJOR_AXIS":"6925.355","REF_FRAME":"TEME","NORAD_CAT_ID":"44753","APOAPSIS":"548.060","SITE":"AFETR","DECAY_DATE":null,"INCLINATION":"53.0506","ECCENTRICITY":"0.00012130","RA_OF_ASC_NODE":"231.8255","ARG_OF_PERICENTER":"85.1881","COUNTRY_CODE":"US","OBJECT_ID":"2019-074AS","LAUNCH_DATE":"2019-11-11","CENTER_NAME":"EARTH","OBJECT_TYPE":"PAYLOAD"},{"MEAN_MOTION_DDOT":"0.0000000000000","MEAN_MOTION":"15.06395234","OBJECT_NAME":"STARLINK-1049","BSTAR":"0.00004624000000","EPHEMERIS_TYPE":"0","PERIOD":"95.592","MEAN_MOTION_DOT":"0.00000407","RCS_SIZE":"LARGE","ELEMENT_SET_NO":"999","CLASSIFICATION_TYPE":"U","REV_AT_EPOCH":"17801","TLE_LINE2":"2 44754  53.0519 231.8096 0001092  89.7371 270.3743 15.06395234178016","TLE_LINE1":"1 44754U 19074AT  23031.92366632  .00000407  00000-0  46240-4 0  9992","PERIAPSIS":"546.472","GP_ID":"224123559","MEAN_ELEMENT_THEORY":"SGP4","EPOCH":"2023-01-31T22:10:04.770048","FILE":"3766747","SITE":"AFETR","DECAY_DATE":null,"APOAPSIS":"547.984","SEMIMAJOR_AXIS":"6925.363","NORAD_CAT_ID":"44754","REF_FRAME":"TEME","MEAN_ANOMALY":"270.3743","TIME_SYSTEM":"UTC","OBJECT_TYPE":"PAYLOAD","LAUNCH_DATE":"2019-11-11","OBJECT_ID":"2019-074AT","CENTER_NAME":"EARTH","RA_OF_ASC_NODE":"231.8096","COUNTRY_CODE":"US","ARG_OF_PERICENTER":"89.7371","ECCENTRICITY":"0.00010920","INCLINATION":"53.0519"},{"FILE":"3766747","EPOCH":"2023-01-31T17:26:06.717696","MEAN_ELEMENT_THEORY":"SGP4","GP_ID":"224122308","PERIAPSIS":"546.483","TLE_LINE1":"1 44757U 19074AW  23031.72646664  .00002185  00000-0  16551-3 0  9995","TLE_LINE2":"2 44757  53.0511 252.6924 0001051  99.2019 260.9089 15.06400743177707","REV_AT_EPOCH":"17770","CLASSIFICATION_TYPE":"U","ELEMENT_SET_NO":"999","RCS_SIZE":"LARGE","MEAN_MOTION_DOT":"0.00002185","PERIOD":"95.592","EPHEMERIS_TYPE":"0","BSTAR":"0.00016551000000","OBJECT_NAME":"STARLINK-1052","MEAN_MOTION":"15.06400743","MEAN_MOTION_DDOT":"0.0000000000000","INCLINATION":"53.0511","ECCENTRICITY":"0.00010510","ARG_OF_PERICENTER":"99.2019","COUNTRY_CODE":"US","RA_OF_ASC_NODE":"252.6924","CENTER_NAME":"EARTH","OBJECT_ID":"2019-074AW","LAUNCH_DATE":"2019-11-11","OBJECT_TYPE":"PAYLOAD","TIME_SYSTEM":"UTC","MEAN_ANOMALY":"260.9089","NORAD_CAT_ID":"44757","REF_FRAME":"TEME","SEMIMAJOR_AXIS":"6925.346","APOAPSIS":"547.939","DECAY_DATE":null,"SITE":"AFETR"},{"MEAN_MOTION":"15.06408976","MEAN_MOTION_DDOT":"0.0000000000000","MEAN_MOTION_DOT":"-0.00000410","PERIOD":"95.592","EPHEMERIS_TYPE":"0","BSTAR":"-0.00000862810000","OBJECT_NAME":"STARLINK-1053","PERIAPSIS":"546.215","TLE_LINE1":"1 44758U 19074AX  23031.94209818 -.00000410  00000-0 -86281-5 0  9996","TLE_LINE2":"2 44758  53.0530 271.8086 0001402  88.5769 271.5380 15.06408976177465","REV_AT_EPOCH":"17746","CLASSIFICATION_TYPE":"U","ELEMENT_SET_NO":"999","RCS_SIZE":"LARGE","FILE":"3766747","EPOCH":"2023-01-31T22:36:37.282752","MEAN_ELEMENT_THEORY":"SGP4","GP_ID":"224123058","APOAPSIS":"548.157","DECAY_DATE":null,"SITE":"AFETR","TIME_SYSTEM":"UTC","MEAN_ANOMALY":"271.5380","REF_FRAME":"TEME","NORAD_CAT_ID":"44758","SEMIMAJOR_AXIS":"6925.321","CENTER_NAME":"EARTH","OBJECT_ID":"2019-074AX","LAUNCH_DATE":"2019-11-11","OBJECT_TYPE":"PAYLOAD","INCLINATION":"53.0530","ECCENTRICITY":"0.00014020","ARG_OF_PERICENTER":"88.5769","COUNTRY_CODE":"US","RA_OF_ASC_NODE":"271.8086"},{"OBJECT_TYPE":"PAYLOAD","CENTER_NAME":"EARTH","OBJECT_ID":"2019-074AY","LAUNCH_DATE":"2019-11-11","ARG_OF_PERICENTER":"91.8270","COUNTRY_CODE":"US","RA_OF_ASC_NODE":"271.8072","INCLINATION":"53.0517","ECCENTRICITY":"0.00012260","DECAY_DATE":null,"SITE":"AFETR","APOAPSIS":"548.069","REF_FRAME":"TEME","NORAD_CAT_ID":"44759","SEMIMAJOR_AXIS":"6925.355","TIME_SYSTEM":"UTC","MEAN_ANOMALY":"268.2859","CLASSIFICATION_TYPE":"U","ELEMENT_SET_NO":"999","RCS_SIZE":"LARGE","PERIAPSIS":"546.371","TLE_LINE1":"1 44759U 19074AY  23031.92366704  .00000738  00000-0  68407-4 0  9993","TLE_LINE2":"2 44759  53.0517 271.8072 0001226  91.8270 268.2859 15.06397867175103","REV_AT_EPOCH":"17510","MEAN_ELEMENT_THEORY":"SGP4","GP_ID":"224123310","FILE":"3766747","EPOCH":"2023-01-31T22:10:04.832256","MEAN_MOTION":"15.06397867","MEAN_MOTION_DDOT":"0.0000000000000","BSTAR":"0.00006840700000","OBJECT_NAME":"STARLINK-1054","MEAN_MOTION_DOT":"0.00000738","PERIOD":"95.592","EPHEMERIS_TYPE":"0"}];
